STARLINK-30327          
1 57707U 23129K   26068.51769668  .00007635  00000+0  29314-3 0  9995
2 57707  42.9974  85.9834 0023030  70.8320 289.5022 15.26626807140903
STARLINK-31892          
1 59853U 24097U   26068.55491966 -.00000933  00000+0 -24376-4 0  9991
2 59853  43.0015 275.3387 0001318 275.6883  84.3818 15.27575099101893
